{
  "type": "FeatureCollection",
  "features": [
    {
      "type": "Feature",
      "properties": {
        "norad_id": 58647,
        "name": "TIANMU-1 13",
        "group": "weather",
        "lat": 70.58549516219809,
        "lon": -7.782566799091188,
        "alt_km": 489.23041516960257,
        "timestamp": "2025-12-20T05:41:49.661573+00:00",
        "meta_object_name": "TIANMU-1 13",
        "meta_object_id": "2023-205C",
        "meta_epoch": "2025-12-19T23:04:53.217984",
        "meta_mean_motion": 15.24609466,
        "meta_eccentricity": 0.00062542,
        "meta_inclination": 97.3611,
        "meta_ra_of_asc_node": 13.4654,
        "meta_arg_of_pericenter": 234.8718,
        "meta_mean_anomaly": 125.1934,
        "meta_ephemeris_type": 0,
        "meta_classification_type": "U",
        "meta_norad_cat_id": 58647,
        "meta_element_set_no": 999,
        "meta_rev_at_epoch": 11017,
        "meta_bstar": 0.00018043609,
        "meta_mean_motion_dot": 4.381e-05,
        "meta_mean_motion_ddot": 0,
        "tle_line1": "1 58647U 23205C   25353.96172706  .00004381  00000+0  18044-3 0  9993",
        "tle_line2": "2 58647  97.3611  13.4654 0006254 234.8718 125.1934 15.24609466110170"
      },
      "geometry": {
        "type": "Point",
        "coordinates": [
          -7.782566799091188,
          70.58549516219809
        ]
      }
    },
    {
      "type": "Feature",
      "properties": {
        "norad_id": 58648,
        "name": "TIANMU-1 14",
        "group": "weather",
        "lat": 17.180377713802553,
        "lon": -164.63342298308996,
        "alt_km": 491.55401631433415,
        "timestamp": "2025-12-20T05:41:49.661586+00:00",
        "meta_object_name": "TIANMU-1 14",
        "meta_object_id": "2023-205D",
        "meta_epoch": "2025-12-19T22:41:05.762976",
        "meta_mean_motion": 15.24592656,
        "meta_eccentricity": 0.00069909,
        "meta_inclination": 97.3543,
        "meta_ra_of_asc_node": 12.7912,
        "meta_arg_of_pericenter": 240.9269,
        "meta_mean_anomaly": 119.1269,
        "meta_ephemeris_type": 0,
        "meta_classification_type": "U",
        "meta_norad_cat_id": 58648,
        "meta_element_set_no": 999,
        "meta_rev_at_epoch": 11017,
        "meta_bstar": 0.00018715523,
        "meta_mean_motion_dot": 4.545e-05,
        "meta_mean_motion_ddot": 0,
        "tle_line1": "1 58648U 23205D   25353.94520559  .00004545  00000+0  18716-3 0  9993",
        "tle_line2": "2 58648  97.3543  12.7912 0006990 240.9269 119.1269 15.24592656110176"
      },
      "geometry": {
        "type": "Point",
        "coordinates": [
          -164.63342298308996,
          17.180377713802553
        ]
      }
    },
    {
      "type": "Feature",
      "properties": {
        "norad_id": 58660,
        "name": "TIANMU-1 19",
        "group": "weather",
        "lat": 31.41282560754339,
        "lon": -70.16257982475909,
        "alt_km": 479.24912756161484,
        "timestamp": "2025-12-20T05:41:49.661597+00:00",
        "meta_object_name": "TIANMU-1 19",
        "meta_object_id": "2023-208A",
        "meta_epoch": "2025-12-19T22:45:48.479328",
        "meta_mean_motion": 15.27973055,
        "meta_eccentricity": 0.00044347,
        "meta_inclination": 97.4395,
        "meta_ra_of_asc_node": 104.9719,
        "meta_arg_of_pericenter": 221.1774,
        "meta_mean_anomaly": 138.9131,
        "meta_ephemeris_type": 0,
        "meta_classification_type": "U",
        "meta_norad_cat_id": 58660,
        "meta_element_set_no": 999,
        "meta_rev_at_epoch": 10992,
        "meta_bstar": 0.00023378929,
        "meta_mean_motion_dot": 6.307e-05,
        "meta_mean_motion_ddot": 0,
        "tle_line1": "1 58660U 23208A   25353.94847777  .00006307  00000+0  23379-3 0  9993",
        "tle_line2": "2 58660  97.4395 104.9719 0004434 221.1774 138.9131 15.27973055109925"
      },
      "geometry": {
        "type": "Point",
        "coordinates": [
          -70.16257982475909,
          31.41282560754339
        ]
      }
    },
    {
      "type": "Feature",
      "properties": {
        "norad_id": 58661,
        "name": "TIANMU-1 20",
        "group": "weather",
        "lat": -72.95008563381948,
        "lon": -99.48076357359228,
        "alt_km": 481.4230117062143,
        "timestamp": "2025-12-20T05:41:49.661608+00:00",
        "meta_object_name": "TIANMU-1 20",
        "meta_object_id": "2023-208B",
        "meta_epoch": "2025-12-19T22:18:17.789184",
        "meta_mean_motion": 15.29163428,
        "meta_eccentricity": 0.00065272,
        "meta_inclination": 97.4333,
        "meta_ra_of_asc_node": 105.4075,
        "meta_arg_of_pericenter": 235.5247,
        "meta_mean_anomaly": 124.5377,
        "meta_ephemeris_type": 0,
        "meta_classification_type": "U",
        "meta_norad_cat_id": 58661,
        "meta_element_set_no": 999,
        "meta_rev_at_epoch": 10999,
        "meta_bstar": 0.0002406798,
        "meta_mean_motion_dot": 6.739e-05,
        "meta_mean_motion_ddot": 0,
        "tle_line1": "1 58661U 23208B   25353.92937256  .00006739  00000+0  24068-3 0  9999",
        "tle_line2": "2 58661  97.4333 105.4075 0006527 235.5247 124.5377 15.29163428109995"
      },
      "geometry": {
        "type": "Point",
        "coordinates": [
          -99.48076357359228,
          -72.95008563381948
        ]
      }
    },
    {
      "type": "Feature",
      "properties": {
        "norad_id": 58662,
        "name": "TIANMU-1 21",
        "group": "weather",
        "lat": -32.47638344067204,
        "lon": 112.42710392979949,
        "alt_km": 477.5605221140813,
        "timestamp": "2025-12-20T05:41:49.661618+00:00",
        "meta_object_name": "TIANMU-1 21",
        "meta_object_id": "2023-208C",
        "meta_epoch": "2025-12-19T22:00:01.995264",
        "meta_mean_motion": 15.31695559,
        "meta_eccentricity": 0.00061723,
        "meta_inclination": 97.438,
        "meta_ra_of_asc_node": 107.3354,
        "meta_arg_of_pericenter": 229.9387,
        "meta_mean_anomaly": 130.1314,
        "meta_ephemeris_type": 0,
        "meta_classification_type": "U",
        "meta_norad_cat_id": 58662,
        "meta_element_set_no": 999,
        "meta_rev_at_epoch": 11009,
        "meta_bstar": 0.00024955608,
        "meta_mean_motion_dot": 7.563e-05,
        "meta_mean_motion_ddot": 0,
        "tle_line1": "1 58662U 23208C   25353.91668976  .00007563  00000+0  24956-3 0  9991",
        "tle_line2": "2 58662  97.4380 107.3354 0006172 229.9387 130.1314 15.31695559110092"
      },
      "geometry": {
        "type": "Point",
        "coordinates": [
          112.42710392979949,
          -32.47638344067204
        ]
      }
    },
    {
      "type": "Feature",
      "properties": {
        "norad_id": 58663,
        "name": "TIANMU-1 22",
        "group": "weather",
        "lat": 36.88029428133964,
        "lon": -69.05825240212289,
        "alt_km": 480.5736310683733,
        "timestamp": "2025-12-20T05:41:49.661628+00:00",
        "meta_object_name": "TIANMU-1 22",
        "meta_object_id": "2023-208D",
        "meta_epoch": "2025-12-19T21:12:52.451424",
        "meta_mean_motion": 15.27717875,
        "meta_eccentricity": 0.00027344,
        "meta_inclination": 97.4389,
        "meta_ra_of_asc_node": 104.9633,
        "meta_arg_of_pericenter": 249.1883,
        "meta_mean_anomaly": 110.9063,
        "meta_ephemeris_type": 0,
        "meta_classification_type": "U",
        "meta_norad_cat_id": 58663,
        "meta_element_set_no": 999,
        "meta_rev_at_epoch": 10992,
        "meta_bstar": 0.00022744321,
        "meta_mean_motion_dot": 6.085e-05,
        "meta_mean_motion_ddot": 0,
        "tle_line1": "1 58663U 23208D   25353.88394041  .00006085  00000+0  22744-3 0  9998",
        "tle_line2": "2 58663  97.4389 104.9633 0002734 249.1883 110.9063 15.27717875109928"
      },
      "geometry": {
        "type": "Point",
        "coordinates": [
          -69.05825240212289,
          36.88029428133964
        ]
      }
    },
    {
      "type": "Feature",
      "properties": {
        "norad_id": 58700,
        "name": "TIANMU-1 15",
        "group": "weather",
        "lat": -5.8734858404041805,
        "lon": -5.0940825999955806,
        "alt_km": 494.90754739262684,
        "timestamp": "2025-12-20T05:41:49.661639+00:00",
        "meta_object_name": "TIANMU-1 15",
        "meta_object_id": "2024-004A",
        "meta_epoch": "2025-12-19T22:34:58.332288",
        "meta_mean_motion": 15.24495558,
        "meta_eccentricity": 0.0005943,
        "meta_inclination": 97.4621,
        "meta_ra_of_asc_node": 175.3833,
        "meta_arg_of_pericenter": 259.6208,
        "meta_mean_anomaly": 100.436,
        "meta_ephemeris_type": 0,
        "meta_classification_type": "U",
        "meta_norad_cat_id": 58700,
        "meta_element_set_no": 999,
        "meta_rev_at_epoch": 10844,
        "meta_bstar": 0.00019911926,
        "meta_mean_motion_dot": 4.824e-05,
        "meta_mean_motion_ddot": 0,
        "tle_line1": "1 58700U 24004A   25353.94095292  .00004824  00000+0  19912-3 0  9990",
        "tle_line2": "2 58700  97.4621 175.3833 0005943 259.6208 100.4360 15.24495558108443"
      },
      "geometry": {
        "type": "Point",
        "coordinates": [
          -5.0940825999955806,
          -5.8734858404041805
        ]
      }
    }
  ]
}